{"type": "FeatureCollection", "metadata": {"crs": "EPSG:4326 (WGS84)", "note": "来源: DataV GeoAtlas 省界(GCJ-02), 已转换 WGS84 并 DP 简化(tol 0.008°)", "data_version": "v1.0.0", "created_at": "2026-10-02T07:50:37+00:00", "scope": "湖北省"}, "features": [{"type": "Feature", "properties": {"adcode": 420000, "name": "湖北省", "count": 13}, "geometry": {"type": "Polygon", "coordinates": [[[111.03962538180843, 33.16761194542863], [111.02796598193589, 33.17565342680197], [111.04084980484576, 33.200658418615625], [110.97890116870354, 33.25338912044993], [110.9549796768393, 33.25195283148082], [110.91629584818926, 33.20196787843737], [110.8596608530495, 33.2119633575249], [110.82328030846638, 33.19938629924444], [110.81896743597824, 33.15631135241522], [110.74747807738449, 33.14821083932054], [110.69706407690339, 33.095137234113636], [110.6454699809864, 33.15535867385892], [110.6184341132813, 33.141873018439604], [110.58890290439157, 33.16643161391362], [110.57226570636973, 33.24852608972547], [110.535875005323, 33.25347070943929], [110.46546432857767, 33.169171331651555], [110.36685375180637, 33.18411479286827], [110.33243931658892, 33.158127759154894], [110.2802029966576, 33.169237450016105], [110.21308326535572, 33.161229941381364], [110.15939306867352, 33.2072117624106], [110.025761546983, 33.18970893482829], [109.99384095285245, 33.21032949681628], [109.9680615056334, 33.20189533348019], [109.84678910036634, 33.24600522353789], [109.72714740227683, 33.22936091585011], [109.6877885153196, 33.252432998221614], [109.64477349544883, 33.249510856113496], [109.61464443365179, 33.27356832718921], [109.60172633840747, 33.23404725814469], [109.50919323170402, 33.23591142181244], [109.49312910087455, 33.20533006221788], [109.43323133711824, 33.1500947773841], [109.51723365246382, 33.136788252874716], [109.5709364607389, 33.108333130967225], [109.6828844221729, 33.11473482133577], [109.78940291111064, 33.06507941683027], [109.75919984365515, 32.90747813646521], [109.78448382380148, 32.88037601836308], [109.84249974804554, 32.89152868918136], [109.8517554046613, 32.90862215861933], [109.90230843126815, 32.90212958262733], [109.92200394099022, 32.88553811490068], [109.98343570057985, 32.88439457369532], [110.09959271189676, 32.83040128503078], [110.13659376687093, 32.800772358627874], [110.12179009022401, 32.77560535107766], [110.15387664725827, 32.7650903479923], [110.151414934696, 32.68102898071054], [110.20079439220429, 32.631246246132], [110.14833753594846, 32.59133798281266], [110.11872155285475, 32.61448227498872], [110.08483057891321, 32.6149740556006], [110.07867843471284, 32.57868292551521], [110.0123117104737, 32.54502523598634], [109.96566010264611, 32.575925952374156], [109.90541339706525, 32.59115183599761], [109.81166251784362, 32.57541468927762], [109.72166374590022, 32.60660917548501], [109.62638694368711, 32.59819586310965], [109.61470390214306, 32.5659415200725], [109.63192596341402, 32.53918984159171], [109.57037027837599, 32.50490165475663], [109.52161710910963, 32.43160123292231], [109.52470827421546, 32.403825463840946], [109.49752498112333, 32.38707325251059], [109.50803337836749, 32.34059803878166], [109.49011758700155, 32.298567315832564], [109.5234839919459, 32.26830588054988], [109.54510010830633, 32.22330618329727], [109.58764831798995, 32.217784209041874], [109.59935003942022, 32.1975276197742], [109.58210900343568, 32.159532267721175], [109.61658736780717, 32.10478372454372], [109.5858140827077, 32.04596485514576], [109.58581691108373, 32.01095270894873], [109.6264392455679, 31.960672687254686], [109.61537137848254, 31.926658115603352], [109.5796650982652, 31.898723665438823], [109.5987597177942, 31.883990479445597], [109.62891176964723, 31.802621759338074], [109.58706701307055, 31.787388361075855], [109.58091155576905, 31.724799956419783], [109.61723438258163, 31.71002850162737], [109.6780848490941, 31.71807204024423], [109.72604657474804, 31.698659758367572], [109.73220773678722, 31.626847400480564], [109.7593100371818, 31.600861862849708], [109.74021357271437, 31.59627293426426], [109.72236769216268, 31.546329093471524], [109.83273475669753, 31.553567174201195], [109.88948635647425, 31.517434488508666], [109.96452044086823, 31.507136365540376], [109.93995108881245, 31.468934045723437], [109.98232647488179, 31.472908426790543], [110.04864374754226, 31.408934173954414], [110.11327568267842, 31.407877390557985], [110.15647019354344, 31.312433664513794], [110.15030043199101, 31.27767144291246], [110.17499829350876, 31.177999416518674], [110.19474826198825, 31.157054897956037], [110.17500304694202, 31.12017009265532], [110.14167417298486, 31.114990978112807], [110.11453571400502, 31.086795089152446], [110.11515700488145, 31.030450627604235], [110.13489423709382, 31.028936714542972], [110.13551487906021, 30.98537545957895], [110.16760822653643, 30.977229559097808], [110.14847663968706, 30.952070811622416], [110.14662845589868, 30.910008032120547], [110.07698347629966, 30.79805319818832], [110.04316307348698, 30.79912965236688], [110.0142968060615, 30.827963845508926], [110.0032432038886, 30.881896703094192], [109.93876858083921, 30.877451126125077], [109.88953513456632, 30.898529342223107], [109.77539940571556, 30.847041765920544], [109.6517377811165, 30.75932017429149], [109.65604064948458, 30.737726248122854], [109.62038921479183, 30.701795115806068], [109.58592060261569, 30.692553780723543], [109.56928479071323, 30.645732090851727], [109.53843578499968, 30.638477131808], [109.53040686175285, 30.663668698174163], [109.43036162967555, 30.594448419074357], [109.34973785312535, 30.485768419102826], [109.33191832567303, 30.52033091759914], [109.35587882054207, 30.54965512146678], [109.2944363100125, 30.6290569230046], [109.24031659350588, 30.579681359277398], [109.13858647776429, 30.519787280679218], [109.0874462744462, 30.577441226998772], [109.10652648604089, 30.644875230959922], [109.06591567278068, 30.63871443118316], [109.03765843942863, 30.65420159896204], [109.00145943557337, 30.625485302647537], [108.96710576690784, 30.62661667682599], [108.88905292805147, 30.564424809075884], [108.83419071716345, 30.502016900082353], [108.80396239863339, 30.49010696330538], [108.78484230280532, 30.51223894515374], [108.73925567372558, 30.493659430436146], [108.69435975737471, 30.54368845312231], [108.68391075048817, 30.586453072654464], [108.63844532320448, 30.577783036583256], [108.64520788300872, 30.538112272365364], [108.56335183425195, 30.46753568585569], [108.55162877511444, 30.48659295308689], [108.50839611293914, 30.500403202213178], [108.46823018995991, 30.485853891886798], [108.42193129949325, 30.490917247049328], [108.40652312486122, 30.437281810344377], [108.42563677166251, 30.415116850283272], [108.39728654292277, 30.375365136943206], [108.4262581836989, 30.35318698294871], [108.45588502513112, 30.358404318590697], [108.49666772009915, 30.313593149859067], [108.51953162357472, 30.308493823806927], [108.54053342929902, 30.26876506520893], [108.57754692289623, 30.254865562863518], [108.54733179969163, 30.16277928512262], [108.56337340442052, 30.15659734658105], [108.50904542986801, 30.056562008253017], [108.52758003449986, 30.050915540652486], [108.53190857924649, 29.982528166603803], [108.51337942246593, 29.938407958217883], [108.51152931377202, 29.88445559171014], [108.46333316689514, 29.86304151603164], [108.4287601738933, 29.87905781484308], [108.36654986486425, 29.840133363030724], [108.41951343912217, 29.814685385609383], [108.41766655579133, 29.77158098891115], [108.43802280943339, 29.777321527969175], [108.43247218561527, 29.73990905646947], [108.45592926991478, 29.73995531357906], [108.49980052221203, 29.70682018424169], [108.500417118603, 29.727609419941004], [108.54427368011815, 29.748508858358324], [108.52080479961643, 29.769750802293586], [108.59666890715495, 29.862796550267316], [108.65447244743416, 29.853906185297028], [108.67597948247021, 29.799354418920394], [108.67229642707595, 29.748458959152195], [108.68643211457301, 29.688670047899425], [108.74793432964049, 29.648056425724533], [108.78181798978095, 29.69071166717442], [108.79291938785872, 29.659014092624375], [108.77689072182741, 29.634552385355313], [108.83980292132786, 29.65753797265942], [108.88357512803428, 29.627950917254022], [108.86570715559716, 29.59568383306903], [108.89650873625143, 29.60402778002942], [108.90881910263978, 29.57384777973216], [108.87372340536375, 29.538449061497197], [108.8841998757832, 29.501493987707683], [108.86201758753066, 29.46970570850953], [108.87989247292039, 29.440031861162947], [108.92297265123202, 29.434812968369034], [108.92973697688929, 29.398849599094913], [108.91498689267965, 29.32535668089592], [108.97885664754689, 29.332005621340613], [108.99480364191706, 29.362720094672664], [109.02977550404992, 29.35949121963358], [109.0555619450069, 29.40217804850418], [109.10724008326986, 29.359929421697103], [109.10170289241574, 29.287435068798725], [109.13683066125093, 29.269209461588364], [109.10540273872424, 29.215419497679285], [109.13437238361847, 29.16793338625785], [109.1578075582607, 29.179984926533784], [109.21085161190352, 29.144557590044684], [109.22749152693608, 29.118450427019326], [109.26934583933493, 29.121056739961826], [109.25642589200292, 29.160246256750096], [109.27057004544422, 29.20148935753037], [109.25272900295634, 29.221861272587173], [109.34737294357575, 29.28382197104166], [109.33876390740457, 29.368322280068345], [109.38610229469442, 29.370867964308882], [109.36334253680413, 29.412584932467027], [109.41318953245712, 29.45216460921825], [109.4107212677495, 29.496432618975486], [109.43106468228548, 29.487600874473447], [109.42859531795357, 29.529771111295787], [109.4532776775037, 29.51211657233677], [109.46191828864582, 29.558986164927703], [109.48353852001284, 29.55227994688946], [109.51133617691978, 29.62520308052441], [109.55394290484135, 29.60605849610129], [109.57367574466662, 29.62897087339695], [109.64690673919849, 29.624762495274872], [109.6598147454193, 29.598729196480697], [109.71267675355604, 29.614245853861473], [109.6960720542704, 29.635073871248146], [109.70959684907932, 29.67249374374064], [109.75514715086499, 29.688067451280634], [109.75021545673046, 29.732242297990165], [109.77425175934961, 29.75667544422208], [109.8649610877704, 29.773963957287762], [109.90317302009957, 29.76307422826713], [109.93639504580295, 29.77342894590908], [110.01867742691687, 29.768531253337706], [110.10847647986392, 29.788675730480026], [110.15536130343754, 29.752379249404118], [110.21459879618591, 29.74572217029448], [110.28479427369676, 29.69530090101977], [110.29709197893979, 29.660450461814378], [110.33396069557185, 29.66714160883108], [110.36715506064064, 29.632247999009373], [110.44168509435306, 29.663474370860165], [110.4620517066819, 29.71186311706304], [110.50220337938863, 29.691188249829224], [110.55776075136254, 29.711593498725502], [110.63776373286554, 29.774965187838703], [110.59533254470534, 29.83887245129273], [110.54479693865655, 29.847128369487574], [110.5336838915663, 29.894844512768675], [110.49353768346822, 29.911333725839754], [110.51206581575676, 29.960135707829355], [110.55218918294634, 29.98718881369545], [110.48611528367591, 30.018628771967947], [110.49229075267395, 30.054393497612118], [110.59593151602456, 30.053547503321738], [110.64572743841438, 30.076799948098884], [110.70715597075773, 30.032146351305308], [110.75082194521238, 30.053359470467697], [110.74158508826277, 30.111871386840726], [110.8457456749472, 30.12546384891443], [110.91902069312958, 30.110488039519467], [110.92455531126316, 30.062326852788672], [111.23636703404313, 30.039359419690854], [111.32550588595107, 29.969296510211365], [111.33656408649449, 29.94335047724755], [111.37651042950033, 29.948997438472638], [111.38820122126282, 29.91164984905849], [111.43070599833318, 29.928790873225097], [111.46959159192735, 29.917465874001124], [111.52148271311735, 29.924877939583517], [111.54803359082672, 29.893296727794073], [111.6994005959288, 29.8890355218139], [111.75171026083505, 29.919087775127007], [111.80475169444105, 29.8999549716754], [111.85536927179444, 29.8559383369784], [111.96003112668153, 29.831485400294902], [111.94897597601674, 29.795685708220116], [112.06999875243879, 29.742402023263814], [112.0595458770194, 29.680050203953805], [112.08354697286377, 29.684186248394294], [112.10511381196375, 29.65819329393319], [112.17237660085726, 29.65569163095015], [112.19645256765914, 29.6328513836862], [112.23838532857178, 29.658370875012782], [112.22791172633166, 29.61520220602098], [112.29747277502848, 29.584462095701074], [112.27533660758388, 29.53557397415753], [112.28518016020507, 29.516300105175347], [112.32698175821542, 29.543815776504513], [112.36264041285037, 29.540111740102443], [112.41867491515028, 29.5973418292881], [112.43347621296455, 29.632731718630517], [112.49339427597134, 29.628201988795496], [112.5360271272203, 29.600229595430896], [112.56626338539056, 29.623170488069658], [112.6345993563564, 29.60702423630471], [112.64504993170985, 29.59139952160971], [112.68806309123708, 29.600684003592214], [112.7083447812503, 29.64746338349601], [112.7274141393171, 29.644325476681296], [112.78285364442287, 29.680221973121565], [112.78778318998987, 29.734800284769292], [112.85564586161614, 29.782190599972957], [112.89632029360325, 29.790531254740788], [112.92339451485344, 29.77285560234481], [112.92094172776133, 29.69127926565843], [112.93876896534006, 29.681895694676268], [112.96885393500317, 29.731718085194142], [113.01978463125286, 29.77156967850649], [112.99892632892288, 29.692650523555802], [112.90618533675531, 29.60600986908501], [112.94431585622416, 29.47218647751079], [113.02840114041389, 29.522460913301927], [113.05112733877277, 29.521368984372142], [113.0720387376763, 29.43697166988574], [113.09357792780388, 29.45832156037736], [113.13919626539708, 29.447945356745326], [113.37132265861524, 29.70183949709569], [113.56576285741383, 29.848128644797843], [113.56946835332586, 29.808159195071795], [113.54478216517819, 29.767093453116903], [113.55281263902633, 29.72606476695345], [113.53428746536187, 29.69848278471461], [113.54108430705973, 29.674585659753745], [113.60030113582691, 29.665802204128685], [113.65752315812568, 29.68340343853375], [113.67474410155349, 29.642294526974418], [113.69811709064412, 29.633413371637204], [113.73259353331447, 29.578235016808854], [113.70427634485917, 29.554323951480782], [113.6249378687119, 29.52218804799437], [113.67168157209457, 29.512735872498563], [113.74924391992128, 29.445468412737824], [113.72521942442829, 29.392846423387162], [113.66861768230068, 29.387197862438402], [113.65509395661854, 29.33248192542146], [113.62618659569115, 29.315319030168467], [113.60403189873533, 29.250647676594618], [113.64587885506225, 29.225022143467534], [113.68708064548451, 29.22546674651952], [113.68585303082965, 29.195711840107975], [113.65695314700753, 29.1686122495791], [113.69016924000017, 29.076592708123727], [113.71662517382502, 29.1037332845266], [113.74372980761221, 29.05981362131571], [113.76962634008169, 29.094323976413385], [113.81037153763575, 29.104311682221297], [113.84681620183969, 29.057858272140873], [113.87644457540935, 29.06469244850086], [113.87089416677661, 29.03749922630825], [113.89248315544378, 29.028622311029654], [113.93620471291047, 29.04636544380524], [113.9466564400191, 29.091823914757246], [114.0289877698501, 29.151156688255703], [114.05727147136624, 29.203840524268454], [114.24667381674593, 29.233749398358142], [114.25344212503815, 29.342780336423083], [114.30145022099994, 29.364101243512895], [114.33589224611994, 29.326494151126496], [114.37034407972695, 29.32174794631292], [114.43444859887668, 29.340538699637843], [114.46039320930109, 29.322863169895587], [114.514174811435, 29.32458173428666], [114.66760222034281, 29.394994679738694], [114.73525525327598, 29.3855205465087], [114.75435094604468, 29.362062802130332], [114.77900745610968, 29.385018785615266], [114.80677245605285, 29.3824540993514], [114.86107529745163, 29.403396021773762], [114.8900496507052, 29.396644718514814], [114.92574533366744, 29.42163964024143], [114.94172318154854, 29.464332842372116], [114.93065927707325, 29.485705738103682], [114.89989772946204, 29.47219066542305], [114.91282482184658, 29.453433641033968], [114.88326817211075, 29.43520317723938], [114.8549011645833, 29.475282614238683], [114.89558391571656, 29.504998848067917], [114.93496105984043, 29.492989310400045], [114.96137342875329, 29.52104747327481], [114.9423312206582, 29.54191347546614], [114.99512820227984, 29.570915177939003], [115.02766169461037, 29.545319630228725], [115.08175280493485, 29.558763449836515], [115.08052475884996, 29.52441091096244], [115.14832850507472, 29.50884482251453], [115.1514077780543, 29.58328030510658], [115.1143960370775, 29.596235125604704], [115.13782736677312, 29.644637102027552], [115.11192598899135, 29.65448603649348], [115.10760868059789, 29.683598092166076], [115.17115050756732, 29.65353686938961], [115.24514900384479, 29.658819079478043], [115.2802298037064, 29.617191015850914], [115.29928783201885, 29.635885259773566], [115.3496855929597, 29.648273955282498], [115.46492755993697, 29.738252829734733], [115.47357231073288, 29.809954677708923], [115.50632981729692, 29.839124124243114], [115.66226999913272, 29.849048266509747], [115.70100941719677, 29.836521623189874], [115.83173309957873, 29.747273582975495], [115.90452974649857, 29.722923365319144], [115.96050518313861, 29.72335594493069], [116.04403985786246, 29.76053012634892], [116.12965527184446, 29.81815019554233], [116.12286099628923, 29.896509230565037], [116.06800829276689, 29.968590912744318], [116.08585825956428, 30.034913251766973], [116.07292452354736, 30.06082163093581], [116.08277175382757, 30.108969636562314], [116.05015066519678, 30.179383637307993], [116.05998892919854, 30.20315897720967], [115.99239739986422, 30.251408849961923], [115.98011222463595, 30.289685974305733], [115.89770226094222, 30.312559388960768], [115.91001995197351, 30.336827718716375], [115.8798199999253, 30.378641611721935], [115.9161696334884, 30.415275494793484], [115.88967865547482, 30.451389238829186], [115.90507794664951, 30.5178868626649], [115.8822727985894, 30.541584315571175], [115.87116719361099, 30.58123357823633], [115.84339150466221, 30.60075947166193], [115.8137513506445, 30.596586754863985], [115.80818983952979, 30.635694476477546], [115.75696859927632, 30.68399027669625], [115.77731573639895, 30.750327674455214], [115.845846774809, 30.75558186541506], [115.85818801191192, 30.81416617325903], [115.84337155985563, 30.826980796739313], [115.86003545643877, 30.862944040896647], [115.92720585563181, 30.888095410982434], [115.97084339273023, 30.93006833704676], [116.03409947201746, 30.956040100658946], [116.0660740726557, 30.954955951144342], [116.0531504371187, 31.010851383978437], [116.00952336250924, 31.009933305724775], [116.0009243629246, 31.033018571972235], [115.93334396610074, 31.04549061163281], [115.93457196815035, 31.07007590206659], [115.88222308577389, 31.107485809270756], [115.8618619790045, 31.14585741814131], [115.83223013213205, 31.12533613725337], [115.79209389314993, 31.126288980673934], [115.77296502125475, 31.110394458873273], [115.69535205331229, 31.199465102930635], [115.64985485485111, 31.209267789992367], [115.5981752435353, 31.171985114236875], [115.58030900815437, 31.142302425061573], [115.53463567168006, 31.192889843507004], [115.53401447158926, 31.230224496883487], [115.50187474775728, 31.26592534310211], [115.46726126073689, 31.26326949940646], [115.43760729818857, 31.342406147074417], [115.40122200226733, 31.335729555212364], [115.36613389538968, 31.346985383685425], [115.38705237601577, 31.38782367694181], [115.36797303304377, 31.403666109636184], [115.33293014133218, 31.402189312990657], [115.29544300044746, 31.38183613714669], [115.24499418037807, 31.390053564169868], [115.24683805917444, 31.419662746419114], [115.20554277646976, 31.440052756323453], [115.21232066447334, 31.513014484008416], [115.2301937264604, 31.55331181587774], [115.20676591632966, 31.553290702916247], [115.15862985760258, 31.602648812324478], [115.11914584460908, 31.596982542462293], [115.10065876333067, 31.56536949210974], [115.10867265222052, 31.52815594238225], [115.09019373461395, 31.506221819557094], [115.01704768498578, 31.525720143863797], [114.98943748114921, 31.469185719060544], [114.95690360429657, 31.492745075265734], [114.87877983739182, 31.467311127830385], [114.86459764274966, 31.47750100013731], [114.82449096828272, 31.45702758381329], [114.78375916254626, 31.478387215581662], [114.7732705428814, 31.518669819758713], [114.69077511699501, 31.523806235317572], [114.63606319345703, 31.580494825818587], [114.61145608089555, 31.583582930506093], [114.5670951718632, 31.55197386089774], [114.55537004794482, 31.559094643564162], [114.5423988936513, 31.62175550798639], [114.5658516345888, 31.658979424965132], [114.58064332870678, 31.760293629682344], [114.54423890125533, 31.76482527653808], [114.52508828994117, 31.740865226551673], [114.43793851034489, 31.72587366787462], [114.34428307204276, 31.753368349586985], [114.28708841930492, 31.750417931708807], [114.22979693074956, 31.831325012887564], [114.18597111875313, 31.85008311278257], [114.12791325984331, 31.840832544150466], [114.11557172531714, 31.807258531506776], [114.08042879151245, 31.779783302579265], [114.0115443178807, 31.76872340483923], [113.9826764464341, 31.74794899744222], [113.94641548857298, 31.791798229279962], [113.95194366397641, 31.850772671897], [113.90886832189625, 31.875235927598887], [113.88791618958989, 31.845248639380426], [113.84841913408603, 31.84114070010651], [113.82494405542666, 31.877188343413874], [113.82617584589744, 31.916823959522638], [113.79961458024454, 31.92744359003768], [113.8113466201711, 31.962506241963787], [113.75147378126124, 31.987820342024985], [113.78540185149161, 32.03403241975521], [113.72250583692279, 32.081186154290116], [113.71634564848772, 32.12225968871533], [113.74406354148636, 32.11413407520038], [113.77612844958635, 32.182563074820806], [113.746519378606, 32.21394590902907], [113.73234257371574, 32.25394290707977], [113.76254350697609, 32.29948699704715], [113.74774120067389, 32.32628808702076], [113.7613029362051, 32.36825678956164], [113.72924813770227, 32.408683120114496], [113.69416408422657, 32.418827752655005], [113.64435478292712, 32.41083589518428], [113.6185222894898, 32.3593261902895], [113.42220550508635, 32.268456485757206], [113.36984010196143, 32.296284087033214], [113.34708623084143, 32.29277451392385], [113.31143655300261, 32.325213309922326], [113.32741356984438, 32.33428487836598], [113.20555327048079, 32.42988398515159], [113.15248768114905, 32.408576012949524], [113.14940484625446, 32.37875711695942], [113.11239775123082, 32.37365230720652], [113.10130308958453, 32.396387149163296], [113.07236900457244, 32.39235097388823], [113.01953184650533, 32.42327240888165], [112.99437438325972, 32.414759337985934], [112.98578879442545, 32.376382400981534], [112.90593130257315, 32.38917839709225], [112.88253305390697, 32.375026508973875], [112.85478939093599, 32.39420161986975], [112.77027386217017, 32.35666423302077], [112.72962372393876, 32.354128046750034], [112.63926644822742, 32.366400999985636], [112.60605617869588, 32.38514137456898], [112.58327493923221, 32.37958559213245], [112.53947846540278, 32.40226779001901], [112.52465752023642, 32.37494363829339], [112.47089177380882, 32.37883172500435], [112.44248210926288, 32.34084983478445], [112.38452696591376, 32.36911601532451], [112.35376681880557, 32.36358853388256], [112.32180679436925, 32.319657099748895], [112.19989995944081, 32.39100088343254], [112.16656687512247, 32.38336379592756], [112.14372095059184, 32.40959789410058], [112.1492797865692, 32.37524612892125], [112.07466960773739, 32.423699691994294], [112.05743773186148, 32.47219865016274], [112.00829259664313, 32.4480793084029], [111.96961548864321, 32.469907619814904], [111.94258369181507, 32.51539859398011], [111.88411671528185, 32.50131573426233], [111.8520417554173, 32.52701613342173], [111.80265816506551, 32.53500023369003], [111.70714294039003, 32.60455499883054], [111.64015301387666, 32.60416925592971], [111.63461771713878, 32.63290329385607], [111.57184283513354, 32.591603843475085], [111.52432466626419, 32.62629427774278], [111.50702359712731, 32.672089732271715], [111.4520402331167, 32.7242979472051], [111.46932706644247, 32.75805720519593], [111.40701981285535, 32.754930182301194], [111.37377989844798, 32.82685701913646], [111.28715609138354, 32.85715915007269], [111.2699435377772, 32.90139378429486], [111.24903410735946, 32.88181399700448], [111.23671986888243, 32.928525246052914], [111.2674774494116, 32.96968134557803], [111.25271417986394, 33.00431540623396], [111.21576797269387, 33.04041991613992], [111.14670659645076, 33.037297930511905], [111.18679211803853, 33.069463158076665], [111.17322039889761, 33.11304680154974], [111.13991573898844, 33.1215056128645], [111.12203660506378, 33.153042895708246], [111.08263046032852, 33.179572216644985], [111.03962538180843, 33.16761194542863]]]}}, {"type": "Feature", "properties": {"adcode": 420000, "name": "湖北省", "count": 13}, "geometry": {"type": "Polygon", "coordinates": [[[111.04084980484576, 33.200658418615625], [111.02796598193589, 33.17565342680197], [111.03962538180843, 33.16761194542863], [111.04084980484576, 33.200658418615625]]]}}, {"type": "Feature", "properties": {"adcode": 420000, "name": "湖北省", "count": 13}, "geometry": {"type": "Polygon", "coordinates": [[[112.89632029360325, 29.790531254740788], [112.88831517769083, 29.782739755238463], [112.91786100415389, 29.765589483465842], [112.92339451485344, 29.77285560234481], [112.89632029360325, 29.790531254740788]]]}}]}